[{"OBJECT_NAME":"STARLINK-37117","OBJECT_ID":"2026-053F","EPOCH":"2026-04-14T06:00:02.000160","MEAN_MOTION":15.49334117,"ECCENTRICITY":0.00019772,"INCLINATION":97.2982,"RA_OF_ASC_NODE":340.2123,"ARG_OF_PERICENTER":121.4662,"MEAN_ANOMALY":220.9645,"EPHEMERIS_TYPE":0,"CLASSIFICATION_TYPE":"U","NORAD_CAT_ID":68212,"ELEMENT_SET_NO":999,"REV_AT_EPOCH":573,"BSTAR":-0.041460837,"MEAN_MOTION_DOT":-0.02023482,"MEAN_MOTION_DDOT":0},{"OBJECT_NAME":"STARLINK-37116","OBJECT_ID":"2026-053G","EPOCH":"2026-04-14T06:00:02.000160","MEAN_MOTION":15.49773991,"ECCENTRICITY":7.611e-5,"INCLINATION":97.2857,"RA_OF_ASC_NODE":340.2178,"ARG_OF_PERICENTER":104.9585,"MEAN_ANOMALY":242.4929,"EPHEMERIS_TYPE":0,"CLASSIFICATION_TYPE":"U","NORAD_CAT_ID":68213,"ELEMENT_SET_NO":999,"REV_AT_EPOCH":573,"BSTAR":-0.033035329,"MEAN_MOTION_DOT":-0.01645351,"MEAN_MOTION_DDOT":0},{"OBJECT_NAME":"STARLINK-35854","OBJECT_ID":"2026-053H","EPOCH":"2026-04-14T06:00:02.000160","MEAN_MOTION":15.55391134,"ECCENTRICITY":0.00015605,"INCLINATION":97.2849,"RA_OF_ASC_NODE":340.2266,"ARG_OF_PERICENTER":60.7938,"MEAN_ANOMALY":319.9204,"EPHEMERIS_TYPE":0,"CLASSIFICATION_TYPE":"U","NORAD_CAT_ID":68214,"ELEMENT_SET_NO":999,"REV_AT_EPOCH":549,"BSTAR":-0.047437394,"MEAN_MOTION_DOT":-0.02818426,"MEAN_MOTION_DDOT":0},{"OBJECT_NAME":"STARLINK-36272","OBJECT_ID":"2026-053J","EPOCH":"2026-04-14T03:41:55.691520","MEAN_MOTION":15.49206035,"ECCENTRICITY":0.00018582,"INCLINATION":97.2826,"RA_OF_ASC_NODE":339.8888,"ARG_OF_PERICENTER":109.1823,"MEAN_ANOMALY":250.963,"EPHEMERIS_TYPE":0,"CLASSIFICATION_TYPE":"U","NORAD_CAT_ID":68215,"ELEMENT_SET_NO":999,"REV_AT_EPOCH":561,"BSTAR":0.0010774711,"MEAN_MOTION_DOT":0.00058987,"MEAN_MOTION_DDOT":0},{"OBJECT_NAME":"STARLINK-37014","OBJECT_ID":"2026-053K","EPOCH":"2026-04-14T06:00:02.000160","MEAN_MOTION":15.50539677,"ECCENTRICITY":0.00012764,"INCLINATION":97.285,"RA_OF_ASC_NODE":340.2342,"ARG_OF_PERICENTER":94.6806,"MEAN_ANOMALY":292.894,"EPHEMERIS_TYPE":0,"CLASSIFICATION_TYPE":"U","NORAD_CAT_ID":68216,"ELEMENT_SET_NO":999,"REV_AT_EPOCH":573,"BSTAR":-0.045047732,"MEAN_MOTION_DOT":-0.02261741,"MEAN_MOTION_DDOT":0},{"OBJECT_NAME":"STARLINK-37011","OBJECT_ID":"2026-053L","EPOCH":"2026-04-14T06:00:02.000160","MEAN_MOTION":15.49597621,"ECCENTRICITY":0.00020753,"INCLINATION":97.2855,"RA_OF_ASC_NODE":340.2246,"ARG_OF_PERICENTER":100.2514,"MEAN_ANOMALY":269.2347,"EPHEMERIS_TYPE":0,"CLASSIFICATION_TYPE":"U","NORAD_CAT_ID":68217,"ELEMENT_SET_NO":999,"REV_AT_EPOCH":573,"BSTAR":-0.017583234,"MEAN_MOTION_DOT":-0.0088295,"MEAN_MOTION_DDOT":0},{"OBJECT_NAME":"STARLINK-37108","OBJECT_ID":"2026-053M","EPOCH":"2026-04-14T06:00:02.000160","MEAN_MOTION":15.51135405,"ECCENTRICITY":0.00018604,"INCLINATION":97.2849,"RA_OF_ASC_NODE":340.2416,"ARG_OF_PERICENTER":103.7568,"MEAN_ANOMALY":306.0278,"EPHEMERIS_TYPE":0,"CLASSIFICATION_TYPE":"U","NORAD_CAT_ID":68218,"ELEMENT_SET_NO":999,"REV_AT_EPOCH":573,"BSTAR":-0.046868037,"MEAN_MOTION_DOT":-0.02386144,"MEAN_MOTION_DDOT":0},{"OBJECT_NAME":"STARLINK-37106","OBJECT_ID":"2026-053N","EPOCH":"2026-04-14T06:00:02.000160","MEAN_MOTION":15.51045558,"ECCENTRICITY":0.00021792,"INCLINATION":97.2855,"RA_OF_ASC_NODE":340.2477,"ARG_OF_PERICENTER":93.6653,"MEAN_ANOMALY":322.7112,"EPHEMERIS_TYPE":0,"CLASSIFICATION_TYPE":"U","NORAD_CAT_ID":68219,"ELEMENT_SET_NO":999,"REV_AT_EPOCH":573,"BSTAR":-0.039540909,"MEAN_MOTION_DOT":-0.02048037,"MEAN_MOTION_DDOT":0},{"OBJECT_NAME":"STARLINK-37030","OBJECT_ID":"2026-053P","EPOCH":"2026-04-14T06:00:02.000160","MEAN_MOTION":15.49239207,"ECCENTRICITY":0.00017012,"INCLINATION":97.2854,"RA_OF_ASC_NODE":340.1372,"ARG_OF_PERICENTER":79.7447,"MEAN_ANOMALY":82.8979,"EPHEMERIS_TYPE":0,"CLASSIFICATION_TYPE":"U","NORAD_CAT_ID":68220,"ELEMENT_SET_NO":999,"REV_AT_EPOCH":573,"BSTAR":-0.00041539655,"MEAN_MOTION_DOT":-0.00022658,"MEAN_MOTION_DDOT":0},{"OBJECT_NAME":"STARLINK-37012","OBJECT_ID":"2026-053Q","EPOCH":"2026-04-14T06:00:02.000160","MEAN_MOTION":15.49442148,"ECCENTRICITY":0.00018896,"INCLINATION":97.2854,"RA_OF_ASC_NODE":340.2376,"ARG_OF_PERICENTER":106.871,"MEAN_ANOMALY":282.7355,"EPHEMERIS_TYPE":0,"CLASSIFICATION_TYPE":"U","NORAD_CAT_ID":68221,"ELEMENT_SET_NO":999,"REV_AT_EPOCH":573,"BSTAR":-0.0078129689,"MEAN_MOTION_DOT":-0.00407431,"MEAN_MOTION_DDOT":0},{"OBJECT_NAME":"STARLINK-37110","OBJECT_ID":"2026-053R","EPOCH":"2026-04-14T06:00:02.000160","MEAN_MOTION":15.52012308,"ECCENTRICITY":0.00021409,"INCLINATION":97.2855,"RA_OF_ASC_NODE":340.2638,"ARG_OF_PERICENTER":78.5234,"MEAN_ANOMALY":10.6512,"EPHEMERIS_TYPE":0,"CLASSIFICATION_TYPE":"U","NORAD_CAT_ID":68222,"ELEMENT_SET_NO":999,"REV_AT_EPOCH":573,"BSTAR":-0.043319492,"MEAN_MOTION_DOT":-0.02289877,"MEAN_MOTION_DDOT":0},{"OBJECT_NAME":"STARLINK-37025","OBJECT_ID":"2026-053S","EPOCH":"2026-04-14T06:00:02.000160","MEAN_MOTION":15.49655791,"ECCENTRICITY":0.00018128,"INCLINATION":97.285,"RA_OF_ASC_NODE":340.2426,"ARG_OF_PERICENTER":110.5515,"MEAN_ANOMALY":299.0005,"EPHEMERIS_TYPE":0,"CLASSIFICATION_TYPE":"U","NORAD_CAT_ID":68223,"ELEMENT_SET_NO":999,"REV_AT_EPOCH":573,"BSTAR":-0.01392839,"MEAN_MOTION_DOT":-0.007049,"MEAN_MOTION_DDOT":0},{"OBJECT_NAME":"STARLINK-36977","OBJECT_ID":"2026-053T","EPOCH":"2026-04-14T06:52:25.781664","MEAN_MOTION":16.15786105,"ECCENTRICITY":0.00018234,"INCLINATION":97.2756,"RA_OF_ASC_NODE":340.6332,"ARG_OF_PERICENTER":235.0027,"MEAN_ANOMALY":125.1089,"EPHEMERIS_TYPE":0,"CLASSIFICATION_TYPE":"U","NORAD_CAT_ID":68224,"ELEMENT_SET_NO":999,"REV_AT_EPOCH":567,"BSTAR":0.0053632531,"MEAN_MOTION_DOT":0.04972456,"MEAN_MOTION_DDOT":0.079565828},{"OBJECT_NAME":"STARLINK-36960","OBJECT_ID":"2026-053U","EPOCH":"2026-04-14T06:00:02.000160","MEAN_MOTION":15.52749059,"ECCENTRICITY":0.00019474,"INCLINATION":97.2855,"RA_OF_ASC_NODE":340.2802,"ARG_OF_PERICENTER":81.0516,"MEAN_ANOMALY":44.6924,"EPHEMERIS_TYPE":0,"CLASSIFICATION_TYPE":"U","NORAD_CAT_ID":68225,"ELEMENT_SET_NO":999,"REV_AT_EPOCH":571,"BSTAR":-0.034631265,"MEAN_MOTION_DOT":-0.01887727,"MEAN_MOTION_DDOT":0},{"OBJECT_NAME":"STARLINK-37038","OBJECT_ID":"2026-053V","EPOCH":"2026-04-14T06:00:02.000160","MEAN_MOTION":15.51424817,"ECCENTRICITY":0.00022571,"INCLINATION":97.2845,"RA_OF_ASC_NODE":340.2649,"ARG_OF_PERICENTER":69.3839,"MEAN_ANOMALY":23.0397,"EPHEMERIS_TYPE":0,"CLASSIFICATION_TYPE":"U","NORAD_CAT_ID":68226,"ELEMENT_SET_NO":999,"REV_AT_EPOCH":571,"BSTAR":-0.050502219,"MEAN_MOTION_DOT":-0.0262328,"MEAN_MOTION_DDOT":0},{"OBJECT_NAME":"STARLINK-37083","OBJECT_ID":"2026-053W","EPOCH":"2026-04-14T06:00:02.000160","MEAN_MOTION":15.52890229,"ECCENTRICITY":0.00019573,"INCLINATION":97.2844,"RA_OF_ASC_NODE":340.2838,"ARG_OF_PERICENTER":85.0911,"MEAN_ANOMALY":48.4454,"EPHEMERIS_TYPE":0,"CLASSIFICATION_TYPE":"U","NORAD_CAT_ID":68227,"ELEMENT_SET_NO":999,"REV_AT_EPOCH":573,"BSTAR":-0.034001986,"MEAN_MOTION_DOT":-0.01865811,"MEAN_MOTION_DDOT":0}]
