STARLINK-37117          
1 68212U 26053F   26104.25002315 -.02023482  00000+0 -41461-1 0  9995
2 68212  97.2982 340.2123 0001977 121.4662 220.9645 15.49334117  5730
STARLINK-37116          
1 68213U 26053G   26104.25002315 -.01645351  00000+0 -33035-1 0  9998
2 68213  97.2857 340.2178 0000761 104.9585 242.4929 15.49773991  5733
STARLINK-35854          
1 68214U 26053H   26104.25002315 -.02818426  00000+0 -47437-1 0  9996
2 68214  97.2849 340.2266 0001560  60.7938 319.9204 15.55391134  5493
STARLINK-36272          
1 68215U 26053J   26104.15411680  .00058987  00000+0  10775-2 0  9995
2 68215  97.2826 339.8888 0001858 109.1823 250.9630 15.49206035  5613
STARLINK-37014          
1 68216U 26053K   26104.25002315 -.02261741  00000+0 -45048-1 0  9996
2 68216  97.2850 340.2342 0001276  94.6806 292.8940 15.50539677  5730
STARLINK-37011          
1 68217U 26053L   26104.25002315 -.00882950  00000+0 -17583-1 0  9999
2 68217  97.2855 340.2246 0002075 100.2514 269.2347 15.49597621  5737
STARLINK-37108          
1 68218U 26053M   26104.25002315 -.02386144  00000+0 -46868-1 0  9994
2 68218  97.2849 340.2416 0001860 103.7568 306.0278 15.51135405  5732
STARLINK-37106          
1 68219U 26053N   26104.25002315 -.02048037  00000+0 -39541-1 0  9991
2 68219  97.2855 340.2477 0002179  93.6653 322.7112 15.51045558  5734
STARLINK-37030          
1 68220U 26053P   26104.25002315 -.00022658  00000+0 -41540-3 0  9996
2 68220  97.2854 340.1372 0001701  79.7447  82.8979 15.49239207  5732
STARLINK-37012          
1 68221U 26053Q   26104.25002315 -.00407431  00000+0 -78130-2 0  9997
2 68221  97.2854 340.2376 0001889 106.8710 282.7355 15.49442148  5739
STARLINK-37110          
1 68222U 26053R   26104.25002315 -.02289877  00000+0 -43319-1 0  9992
2 68222  97.2855 340.2638 0002140  78.5234  10.6512 15.52012308  5737
STARLINK-37025          
1 68223U 26053S   26104.25002315 -.00704900  00000+0 -13928-1 0  9993
2 68223  97.2850 340.2426 0001812 110.5515 299.0005 15.49655791  5737
STARLINK-36977          
1 68224U 26053T   26104.28640951  .04972456  79566-1  53633-2 0  9999
2 68224  97.2756 340.6332 0001823 235.0027 125.1089 16.15786105  5678
STARLINK-36960          
1 68225U 26053U   26104.25002315 -.01887727  00000+0 -34631-1 0  9999
2 68225  97.2855 340.2802 0001947  81.0516  44.6924 15.52749059  5711
STARLINK-37038          
1 68226U 26053V   26104.25002315 -.02623280  00000+0 -50502-1 0  9998
2 68226  97.2845 340.2649 0002257  69.3839  23.0397 15.51424817  5718
STARLINK-37083          
1 68227U 26053W   26104.25002315 -.01865811  00000+0 -34002-1 0  9993
2 68227  97.2844 340.2838 0001957  85.0911  48.4454 15.52890229  5732
